{
  "type": "FeatureCollection",
  "generator": "overpass-turbo",
  "copyright": "The data included in this document is from www.openstreetmap.org. The data is made available under ODbL.",
  "timestamp": "2024-12-11T07:16:14Z",
  "features": [
    {
      "type": "Feature",
      "properties": {
        "@id": "relation/1280789",
        "addr:city": "Surrey",
        "addr:housenumber": "13750",
        "addr:province": "BC",
        "addr:street": "96 Avenue",
        "alt_name": "SMH",
        "amenity": "hospital",
        "beds": "650",
        "emergency": "yes",
        "healthcare": "hospital",
        "healthcare:speciality": "emergency",
        "name": "Surrey Memorial Hospital",
        "opening_hours": "24/7",
        "operator": "Fraser Health Authority",
        "operator:type": "public",
        "operator:wikidata": "Q5493608",
        "operator:wikipedia": "en:Fraser Health",
        "phone": "+1-604-581-2211",
        "surrey:addrid": "19839",
        "surrey:date": "20020213",
        "type": "multipolygon",
        "website": "https://www.fraserhealth.ca/find-us/hospitals/surrey-memorial-hospital/",
        "wheelchair": "yes",
        "wikidata": "Q7646827",
        "wikipedia": "en:Surrey Memorial Hospital",
        "@geometry": "center"
      },
      "geometry": {
        "type": "Point",
        "coordinates": [
          -122.842832,
          49.1762543
        ]
      },
      "id": "relation/1280789"
    },
    {
      "type": "Feature",
      "properties": {
        "@id": "relation/1731032",
        "addr:housenumber": "7000",
        "addr:street": "Westminster Highway",
        "amenity": "hospital",
        "emergency": "yes",
        "healthcare": "hospital",
        "name": "Richmond General Hospital",
        "opening_hours": "24/7",
        "operator": "Vancouver Coastal Health",
        "operator:type": "public",
        "phone": "+1-604-278-9711",
        "type": "multipolygon",
        "website": "https://www.vch.ca/en/location/richmond-hospital",
        "wheelchair": "yes",
        "wikidata": "Q7330892",
        "wikipedia": "en:Richmond Hospital",
        "@geometry": "center"
      },
      "geometry": {
        "type": "Point",
        "coordinates": [
          -123.1463279,
          49.1688865
        ]
      },
      "id": "relation/1731032"
    },
    {
      "type": "Feature",
      "properties": {
        "@id": "relation/17286359",
        "addr:city": "Vancouver",
        "addr:housenumber": "899",
        "addr:postcode": "V5Z 0A2",
        "addr:province": "BC",
        "addr:street": "West 12th Avenue",
        "amenity": "hospital",
        "beds": "1900",
        "emergency": "yes",
        "full_name": "Vancouver General Hospital (VGH)",
        "healthcare": "hospital",
        "healthcare:speciality": "emergency",
        "name": "Vancouver General Hospital",
        "operator": "Vancouver Coastal Health",
        "operator:type": "public",
        "phone": "+1-604-875-4111",
        "ref": "VGH",
        "short_name": "VGH",
        "type": "multipolygon",
        "website": "https://www.vch.ca/en/location/vancouver-general-hospital",
        "wheelchair": "yes",
        "wikidata": "Q7914187",
        "wikipedia": "en:Vancouver General Hospital",
        "@geometry": "center"
      },
      "geometry": {
        "type": "Point",
        "coordinates": [
          -123.1221077,
          49.2612202
        ]
      },
      "id": "relation/17286359"
    },
    {
      "type": "Feature",
      "properties": {
        "@id": "way/23811142",
        "addr:housenumber": "231",
        "addr:street": "East 15th Street",
        "amenity": "hospital",
        "emergency": "yes",
        "healthcare": "hospital",
        "name": "Lions Gate Hospital",
        "operator": "Vancouver Coastal Health",
        "operator:type": "public",
        "phone": "+1-604-988-3131",
        "toilets:wheelchair": "yes",
        "website": "https://www.vch.ca/en/location/lions-gate-hospital",
        "wheelchair": "yes",
        "wikidata": "Q96418816",
        "wikipedia": "en:Lions Gate Hospital",
        "@geometry": "center"
      },
      "geometry": {
        "type": "Point",
        "coordinates": [
          -123.0676719,
          49.3209784
        ]
      },
      "id": "way/23811142"
    },
    {
      "type": "Feature",
      "properties": {
        "@id": "way/41770711",
        "addr:housenumber": "475",
        "addr:street": "Guildford Way",
        "amenity": "hospital",
        "emergency": "yes",
        "healthcare": "hospital",
        "name": "Eagle Ridge Hospital",
        "operator": "Fraser Health Authority",
        "operator:type": "public",
        "operator:wikidata": "Q5493608",
        "phone": "+1-604-461-2022",
        "website": "https://www.fraserhealth.ca/Service-Directory/Locations/Port-Moody/eagle-ridge-hospital",
        "@geometry": "center"
      },
      "geometry": {
        "type": "Point",
        "coordinates": [
          -122.8243716,
          49.2851831
        ]
      },
      "id": "way/41770711"
    },
    {
      "type": "Feature",
      "properties": {
        "@id": "way/41839791",
        "addr:housenumber": "3935",
        "addr:street": "Kincaid Street",
        "amenity": "hospital",
        "beds": "286",
        "emergency": "yes",
        "healthcare": "hospital",
        "healthcare:speciality": "emergency;general;internal;surgery;orthopaedics;gynaecology;urology;obstetrics;neonatal_intensive_care;tertiary_palliative;psychiatry;ambulatory",
        "name": "Burnaby Hospital",
        "old_name": "Burnaby General Hospital",
        "opening_hours": "24/7",
        "operator": "Fraser Health Authority",
        "operator:type": "public",
        "operator:wikidata": "Q5493608",
        "operator:wikipedia": "en:Fraser Health",
        "phone": "+1-604-434-4211",
        "start_date": "1952",
        "website": "https://www.fraserhealth.ca/Service-Directory/Locations/Burnaby/burnaby-hospital#.YIrwo_lKjn0",
        "wheelchair": "yes",
        "wikidata": "Q4999585",
        "wikipedia": "en:Burnaby Hospital",
        "@geometry": "center"
      },
      "geometry": {
        "type": "Point",
        "coordinates": [
          -123.0154562,
          49.2496764
        ]
      },
      "id": "way/41839791"
    },
    {
      "type": "Feature",
      "properties": {
        "@id": "way/41879302",
        "addr:housenumber": "330",
        "addr:street": "East Columbia Street",
        "amenity": "hospital",
        "emergency": "yes",
        "healthcare": "hospital",
        "name": "Royal Columbian Hospital",
        "operator": "Fraser Health Authority",
        "operator:type": "public",
        "operator:wikidata": "Q5493608",
        "operator:wikipedia": "en:Fraser Health",
        "phone": "+1-604-520-4253",
        "website": "https://www.fraserhealth.ca/Service-Directory/Locations/New-Westminster/royal-columbian-hospital",
        "wikidata": "Q7373996",
        "@geometry": "center"
      },
      "geometry": {
        "type": "Point",
        "coordinates": [
          -122.8905833,
          49.2265929
        ]
      },
      "id": "way/41879302"
    },
    {
      "type": "Feature",
      "properties": {
        "@id": "way/42504921",
        "amenity": "hospital",
        "emergency": "no",
        "healthcare": "hospital",
        "healthcare:speciality": "psychiatry",
        "name": "Forensic Psychiatric Hospital",
        "@geometry": "center"
      },
      "geometry": {
        "type": "Point",
        "coordinates": [
          -122.8112105,
          49.2283846
        ]
      },
      "id": "way/42504921"
    },
    {
      "type": "Feature",
      "properties": {
        "@id": "way/51185697",
        "addr:city": "Vancouver",
        "addr:housenumber": "1081",
        "addr:postcode": "V6Z 1Y6",
        "addr:street": "Burrard Street",
        "amenity": "hospital",
        "emergency": "yes",
        "healthcare": "hospital",
        "name": "St. Paul's Hospital",
        "opening_hours": "24/7",
        "operator": "Providence Health Care",
        "operator:type": "public",
        "phone": "+1-604-682-2344",
        "website": "https://www.providencehealthcare.org/hospitals-residences/st-paul%27s-hospital",
        "wheelchair": "yes",
        "wikidata": "Q7591153",
        "wikipedia": "en:St. Paul's Hospital (Vancouver)",
        "@geometry": "center"
      },
      "geometry": {
        "type": "Point",
        "coordinates": [
          -123.1289158,
          49.2806269
        ]
      },
      "id": "way/51185697"
    },
    {
      "type": "Feature",
      "properties": {
        "@id": "way/233309999",
        "addr:housenumber": "22051",
        "addr:street": "Fraser Highway",
        "amenity": "hospital",
        "emergency": "yes",
        "healthcare": "hospital",
        "landuse": "institutional",
        "name": "Langley Memorial Hospital",
        "operator": "Fraser Health Authority",
        "operator:type": "public",
        "operator:wikidata": "Q5493608",
        "operator:wikipedia": "en:Fraser Health",
        "phone": "+1-604-514-6000",
        "website": "https://www.fraserhealth.ca/Service-Directory/Locations/Langley/langley-memorial-hospital",
        "wikidata": "Q17068624",
        "@geometry": "center"
      },
      "geometry": {
        "type": "Point",
        "coordinates": [
          -122.6119512,
          49.0942805
        ]
      },
      "id": "way/233309999"
    },
    {
      "type": "Feature",
      "properties": {
        "@id": "way/259652372",
        "addr:housenumber": "4500",
        "addr:street": "Oak Street",
        "alt_name": "BCCW",
        "amenity": "hospital",
        "healthcare": "hospital",
        "landuse": "institutional",
        "name": "Children's & Women's Health Centre of British Columbia",
        "operator": "Provincial Health Services Authority",
        "operator:type": "public",
        "short_name": "C&W",
        "website": "http://www.cw.bc.ca",
        "@geometry": "center"
      },
      "geometry": {
        "type": "Point",
        "coordinates": [
          -123.124124,
          49.2442391
        ]
      },
      "id": "way/259652372"
    },
    {
      "type": "Feature",
      "properties": {
        "@id": "way/292380824",
        "addr:housenumber": "3080",
        "addr:street": "Prince Edward Street",
        "amenity": "hospital",
        "healthcare": "hospital",
        "name": "Mount Saint Joseph Hospital",
        "wikidata": "Q96419005",
        "wikipedia": "en:Mount Saint Joseph Hospital",
        "@geometry": "center"
      },
      "geometry": {
        "type": "Point",
        "coordinates": [
          -123.094971,
          49.2582912
        ]
      },
      "id": "way/292380824"
    },
    {
      "type": "Feature",
      "properties": {
        "@id": "way/476150022",
        "addr:housenumber": "15521",
        "addr:street": "Russell Avenue",
        "amenity": "hospital",
        "check_date": "2024-01-14",
        "emergency": "yes",
        "healthcare": "hospital",
        "internet_access": "wlan",
        "internet_access:fee": "no",
        "name": "Peace Arch Hospital",
        "opening_hours": "24/7",
        "operator": "Fraser Health Authority",
        "operator:type": "public",
        "operator:wikidata": "Q5493608",
        "phone": "+1-604-531-5512",
        "website": "https://www.fraserhealth.ca/Service-Directory/Locations/White-Rock/peace-arch-hospital",
        "wheelchair": "yes",
        "wikidata": "Q7157315",
        "wikipedia": "en:Peace Arch Hospital",
        "@geometry": "center"
      },
      "geometry": {
        "type": "Point",
        "coordinates": [
          -122.7923172,
          49.0301701
        ]
      },
      "id": "way/476150022"
    },
    {
      "type": "Feature",
      "properties": {
        "@id": "way/739179535",
        "addr:city": "Coquitlam",
        "addr:housenumber": "2745",
        "addr:postcode": "V3C4J2",
        "addr:province": "BC",
        "addr:street": "Lougheed Highway",
        "amenity": "hospital",
        "healthcare": "hospital",
        "name": "Redfish Healing Centre for Mental Health and Addiction",
        "operator": "PHSA",
        "operator:type": "government",
        "start_date": "2021-10-12",
        "wheelchair": "yes",
        "@geometry": "center"
      },
      "geometry": {
        "type": "Point",
        "coordinates": [
          -122.7994283,
          49.2586223
        ]
      },
      "id": "way/739179535"
    },
    {
      "type": "Feature",
      "properties": {
        "@id": "way/902053499",
        "addr:housenumber": "11666",
        "addr:street": "Laity Street",
        "amenity": "hospital",
        "emergency": "yes",
        "healthcare": "hospital",
        "name": "Ridge Meadows Hospital",
        "operator": "Fraser Health Authority",
        "operator:type": "public",
        "operator:wikidata": "Q5493608",
        "operator:wikipedia": "en:Fraser Health",
        "phone": "+1-604-463-4111",
        "website": "https://www.fraserhealth.ca/Service-Directory/Locations/Maple-Ridge---Pitt-Meadows/ridge-meadows-hospital",
        "wikidata": "Q121644099",
        "@geometry": "center"
      },
      "geometry": {
        "type": "Point",
        "coordinates": [
          -122.6299881,
          49.2159056
        ]
      },
      "id": "way/902053499"
    },
    {
      "type": "Feature",
      "properties": {
        "@id": "way/902491360",
        "addr:housenumber": "5800",
        "addr:street": "Mountain View Boulevard",
        "amenity": "hospital",
        "beds": "64",
        "emergency": "yes",
        "healthcare": "hospital",
        "name": "Delta Hospital",
        "operator": "Fraser Health Authority",
        "operator:type": "public",
        "operator:wikidata": "Q5493608",
        "operator:wikipedia": "en:Fraser Health",
        "phone": "+1-604-946-1121",
        "website": "https://www.fraserhealth.ca/Service-Directory/Locations/Delta/delta-hospital",
        "wikidata": "Q20712289",
        "@geometry": "center"
      },
      "geometry": {
        "type": "Point",
        "coordinates": [
          -123.0619072,
          49.0860132
        ]
      },
      "id": "way/902491360"
    },
    {
      "type": "Feature",
      "properties": {
        "@id": "node/8508184533",
        "addr:housenumber": "2211",
        "addr:street": "Wesbrook Mall",
        "amenity": "hospital",
        "emergency": "yes",
        "healthcare": "hospital",
        "name": "UBC Hospital",
        "website": "https://www.vch.ca/en/location/ubc-hospital",
        "wikidata": "Q7863802",
        "wikipedia": "en:UBC Hospital"
      },
      "geometry": {
        "type": "Point",
        "coordinates": [
          -123.245747,
          49.2641866
        ]
      },
      "id": "node/8508184533"
    },
    {
      "type": "Feature",
      "properties": {
        "@id": "node/11519069557",
        "addr:city": "Richmond",
        "addr:postcode": "V6X3X9",
        "addr:province": "British Columbia",
        "addr:street": "Cambie Road",
        "addr:unit": "1008-8181",
        "amenity": "hospital",
        "healthcare": "hospital",
        "healthcare:speciality": "general;family_medicine",
        "name": "CRC Health Centre"
      },
      "geometry": {
        "type": "Point",
        "coordinates": [
          -123.1339341,
          49.1853789
        ]
      },
      "id": "node/11519069557"
    }
  ]
}